{
  "type": "FeatureCollection",
  "features": [
    {
      "type": "Feature",
      "properties": {
        "norad_id": 66647,
        "name": "COSMOS 2597 (RODNIK-S 22)",
        "group": "last-30-days",
        "lat": -50.83055930465971,
        "lon": 117.63961229083142,
        "alt_km": 1502.519298311101,
        "timestamp": "2025-12-09T16:56:35.360250+00:00",
        "meta_object_name": "COSMOS 2597 (RODNIK-S 22)",
        "meta_object_id": "2025-273A",
        "meta_epoch": "2025-12-09T11:50:00.631104",
        "meta_mean_motion": 12.4195124,
        "meta_eccentricity": 0.000796,
        "meta_inclination": 82.4984,
        "meta_ra_of_asc_node": 288.4651,
        "meta_arg_of_pericenter": 296.9217,
        "meta_mean_anomaly": 63.1048,
        "meta_ephemeris_type": 0,
        "meta_classification_type": "U",
        "meta_norad_cat_id": 66647,
        "meta_element_set_no": 999,
        "meta_rev_at_epoch": 173,
        "meta_bstar": 0.00022199,
        "meta_mean_motion_dot": 4e-07,
        "meta_mean_motion_ddot": 0,
        "tle_line1": "1 66647U 25273A   25343.49306286  .00000040  00000+0  22199-3 0  9992",
        "tle_line2": "2 66647  82.4984 288.4651 0007960 296.9217  63.1048 12.41951240  1730"
      },
      "geometry": {
        "type": "Point",
        "coordinates": [
          117.63961229083142,
          -50.83055930465971
        ]
      }
    },
    {
      "type": "Feature",
      "properties": {
        "norad_id": 66648,
        "name": "COSMOS 2598 (RODNIK-S 23)",
        "group": "last-30-days",
        "lat": -73.08801178458702,
        "lon": 133.9997283555893,
        "alt_km": 1496.0928847659306,
        "timestamp": "2025-12-09T16:56:35.360261+00:00",
        "meta_object_name": "COSMOS 2598 (RODNIK-S 23)",
        "meta_object_id": "2025-273B",
        "meta_epoch": "2025-12-09T11:42:43.537824",
        "meta_mean_motion": 12.42861553,
        "meta_eccentricity": 0.0007264,
        "meta_inclination": 82.5025,
        "meta_ra_of_asc_node": 288.4721,
        "meta_arg_of_pericenter": 259.0803,
        "meta_mean_anomaly": 100.9459,
        "meta_ephemeris_type": 0,
        "meta_classification_type": "U",
        "meta_norad_cat_id": 66648,
        "meta_element_set_no": 999,
        "meta_rev_at_epoch": 173,
        "meta_bstar": -8.3492e-05,
        "meta_mean_motion_dot": -2e-08,
        "meta_mean_motion_ddot": 0,
        "tle_line1": "1 66648U 25273B   25343.48800391 -.00000002  00000+0 -83492-4 0  9992",
        "tle_line2": "2 66648  82.5025 288.4721 0007264 259.0803 100.9459 12.42861553  1738"
      },
      "geometry": {
        "type": "Point",
        "coordinates": [
          133.9997283555893,
          -73.08801178458702
        ]
      }
    },
    {
      "type": "Feature",
      "properties": {
        "norad_id": 66649,
        "name": "COSMOS 2599 (RODNIK-S 24)",
        "group": "last-30-days",
        "lat": -36.95749953993481,
        "lon": 114.03403527514175,
        "alt_km": 1505.6764459282922,
        "timestamp": "2025-12-09T16:56:35.360273+00:00",
        "meta_object_name": "COSMOS 2599 (RODNIK-S 24)",
        "meta_object_id": "2025-273C",
        "meta_epoch": "2025-12-09T11:54:29.668608",
        "meta_mean_motion": 12.41671799,
        "meta_eccentricity": 0.0008173,
        "meta_inclination": 82.5025,
        "meta_ra_of_asc_node": 288.4783,
        "meta_arg_of_pericenter": 307.4246,
        "meta_mean_anomaly": 52.6088,
        "meta_ephemeris_type": 0,
        "meta_classification_type": "U",
        "meta_norad_cat_id": 66649,
        "meta_element_set_no": 999,
        "meta_rev_at_epoch": 173,
        "meta_bstar": 0.00013025,
        "meta_mean_motion_dot": 2.8e-07,
        "meta_mean_motion_ddot": 0,
        "tle_line1": "1 66649U 25273C   25343.49617672  .00000028  00000+0  13025-3 0  9992",
        "tle_line2": "2 66649  82.5025 288.4783 0008173 307.4246  52.6088 12.41671799  1737"
      },
      "geometry": {
        "type": "Point",
        "coordinates": [
          114.03403527514175,
          -36.95749953993481
        ]
      }
    },
    {
      "type": "Feature",
      "properties": {
        "norad_id": 66650,
        "name": "BEE-1000",
        "group": "last-30-days",
        "lat": -30.417064301494783,
        "lon": 86.37011565574646,
        "alt_km": 594.4303644067832,
        "timestamp": "2025-12-09T16:56:35.360284+00:00",
        "meta_object_name": "BEE-1000",
        "meta_object_id": "2025-274A",
        "meta_epoch": "2025-12-09T06:20:27.921120",
        "meta_mean_motion": 14.91642041,
        "meta_eccentricity": 0.001044,
        "meta_inclination": 97.7386,
        "meta_ra_of_asc_node": 270.5157,
        "meta_arg_of_pericenter": 264.9451,
        "meta_mean_anomaly": 95.0576,
        "meta_ephemeris_type": 0,
        "meta_classification_type": "U",
        "meta_norad_cat_id": 66650,
        "meta_element_set_no": 999,
        "meta_rev_at_epoch": 188,
        "meta_bstar": 0.00027961,
        "meta_mean_motion_dot": 2.756e-05,
        "meta_mean_motion_ddot": 0,
        "tle_line1": "1 66650U 25274A   25343.26421205  .00002756  00000+0  27961-3 0  9999",
        "tle_line2": "2 66650  97.7386 270.5157 0010440 264.9451  95.0576 14.91642041  1883"
      },
      "geometry": {
        "type": "Point",
        "coordinates": [
          86.37011565574646,
          -30.417064301494783
        ]
      }
    },
    {
      "type": "Feature",
      "properties": {
        "norad_id": 66651,
        "name": "2025-274B",
        "group": "last-30-days",
        "lat": -33.96052794385106,
        "lon": 85.69556252694753,
        "alt_km": 593.7096661536907,
        "timestamp": "2025-12-09T16:56:35.360297+00:00",
        "meta_object_name": "2025-274B",
        "meta_object_id": "2025-274B",
        "meta_epoch": "2025-12-09T07:56:08.402784",
        "meta_mean_motion": 14.91755081,
        "meta_eccentricity": 0.0010746,
        "meta_inclination": 97.7381,
        "meta_ra_of_asc_node": 270.5817,
        "meta_arg_of_pericenter": 263.8603,
        "meta_mean_anomaly": 96.1392,
        "meta_ephemeris_type": 0,
        "meta_classification_type": "U",
        "meta_norad_cat_id": 66651,
        "meta_element_set_no": 999,
        "meta_rev_at_epoch": 189,
        "meta_bstar": 0.00057036,
        "meta_mean_motion_dot": 5.698e-05,
        "meta_mean_motion_ddot": 0,
        "tle_line1": "1 66651U 25274B   25343.33065281  .00005698  00000+0  57036-3 0  9990",
        "tle_line2": "2 66651  97.7381 270.5817 0010746 263.8603  96.1392 14.91755081  1896"
      },
      "geometry": {
        "type": "Point",
        "coordinates": [
          85.69556252694753,
          -33.96052794385106
        ]
      }
    },
    {
      "type": "Feature",
      "properties": {
        "norad_id": 66652,
        "name": "2025-274C",
        "group": "last-30-days",
        "lat": -40.405594792301756,
        "lon": 84.30642067714506,
        "alt_km": 593.868482397047,
        "timestamp": "2025-12-09T16:56:35.360307+00:00",
        "meta_object_name": "2025-274C",
        "meta_object_id": "2025-274C",
        "meta_epoch": "2025-12-09T07:54:25.630848",
        "meta_mean_motion": 14.91872769,
        "meta_eccentricity": 0.0010412,
        "meta_inclination": 97.7387,
        "meta_ra_of_asc_node": 270.584,
        "meta_arg_of_pericenter": 270.7896,
        "meta_mean_anomaly": 89.213,
        "meta_ephemeris_type": 0,
        "meta_classification_type": "U",
        "meta_norad_cat_id": 66652,
        "meta_element_set_no": 999,
        "meta_rev_at_epoch": 189,
        "meta_bstar": 0.00036571,
        "meta_mean_motion_dot": 3.643e-05,
        "meta_mean_motion_ddot": 0,
        "tle_line1": "1 66652U 25274C   25343.32946332  .00003643  00000+0  36571-3 0  9994",
        "tle_line2": "2 66652  97.7387 270.5840 0010412 270.7896  89.2130 14.91872769  1896"
      },
      "geometry": {
        "type": "Point",
        "coordinates": [
          84.30642067714506,
          -40.405594792301756
        ]
      }
    },
    {
      "type": "Feature",
      "properties": {
        "norad_id": 66653,
        "name": "2025-274D",
        "group": "last-30-days",
        "lat": -40.71516634625036,
        "lon": 84.23292893176004,
        "alt_km": 593.0287604037858,
        "timestamp": "2025-12-09T16:56:35.360318+00:00",
        "meta_object_name": "2025-274D",
        "meta_object_id": "2025-274D",
        "meta_epoch": "2025-12-09T07:54:20.482272",
        "meta_mean_motion": 14.91876857,
        "meta_eccentricity": 0.0011283,
        "meta_inclination": 97.7386,
        "meta_ra_of_asc_node": 270.5838,
        "meta_arg_of_pericenter": 266.6852,
        "meta_mean_anomaly": 93.3076,
        "meta_ephemeris_type": 0,
        "meta_classification_type": "U",
        "meta_norad_cat_id": 66653,
        "meta_element_set_no": 999,
        "meta_rev_at_epoch": 189,
        "meta_bstar": 0.00037311,
        "meta_mean_motion_dot": 3.719e-05,
        "meta_mean_motion_ddot": 0,
        "tle_line1": "1 66653U 25274D   25343.32940373  .00003719  00000+0  37311-3 0  9991",
        "tle_line2": "2 66653  97.7386 270.5838 0011283 266.6852  93.3076 14.91876857  1893"
      },
      "geometry": {
        "type": "Point",
        "coordinates": [
          84.23292893176004,
          -40.71516634625036
        ]
      }
    }
  ]
}